[
  {
    "value": "1",
    "province_id": "21",
    "label": "Kabupaten Aceh Barat",
    "postal_code": "23681"
  },
  {
    "value": "10",
    "province_id": "21",
    "label": "Kabupaten Aceh Timur",
    "postal_code": "24454"
  },
  {
    "value": "100",
    "province_id": "19",
    "label": "Kabupaten Buru Selatan",
    "postal_code": "97351"
  },
  {
    "value": "101",
    "province_id": "30",
    "label": "Kabupaten Buton",
    "postal_code": "93754"
  },
  {
    "value": "102",
    "province_id": "30",
    "label": "Kabupaten Buton Utara",
    "postal_code": "93745"
  },
  {
    "value": "103",
    "province_id": "9",
    "label": "Kabupaten Ciamis",
    "postal_code": "46211"
  },
  {
    "value": "104",
    "province_id": "9",
    "label": "Kabupaten Cianjur",
    "postal_code": "43217"
  },
  {
    "value": "105",
    "province_id": "10",
    "label": "Kabupaten Cilacap",
    "postal_code": "53211"
  },
  {
    "value": "106",
    "province_id": "3",
    "label": "Kota Cilegon",
    "postal_code": "42417"
  },
  {
    "value": "107",
    "province_id": "9",
    "label": "Kota Cimahi",
    "postal_code": "40512"
  },
  {
    "value": "108",
    "province_id": "9",
    "label": "Kabupaten Cirebon",
    "postal_code": "45611"
  },
  {
    "value": "109",
    "province_id": "9",
    "label": "Kota Cirebon",
    "postal_code": "45116"
  },
  {
    "value": "11",
    "province_id": "21",
    "label": "Kabupaten Aceh Utara",
    "postal_code": "24382"
  },
  {
    "value": "110",
    "province_id": "34",
    "label": "Kabupaten Dairi",
    "postal_code": "22211"
  },
  {
    "value": "111",
    "province_id": "24",
    "label": "Kabupaten Deiyai (Deliyai)",
    "postal_code": "98784"
  },
  {
    "value": "112",
    "province_id": "34",
    "label": "Kabupaten Deli Serdang",
    "postal_code": "20511"
  },
  {
    "value": "113",
    "province_id": "10",
    "label": "Kabupaten Demak",
    "postal_code": "59519"
  },
  {
    "value": "114",
    "province_id": "1",
    "label": "Kota Denpasar",
    "postal_code": "80227"
  },
  {
    "value": "115",
    "province_id": "9",
    "label": "Kota Depok",
    "postal_code": "16416"
  },
  {
    "value": "116",
    "province_id": "32",
    "label": "Kabupaten Dharmasraya",
    "postal_code": "27612"
  },
  {
    "value": "117",
    "province_id": "24",
    "label": "Kabupaten Dogiyai",
    "postal_code": "98866"
  },
  {
    "value": "118",
    "province_id": "22",
    "label": "Kabupaten Dompu",
    "postal_code": "84217"
  },
  {
    "value": "119",
    "province_id": "29",
    "label": "Kabupaten Donggala",
    "postal_code": "94341"
  },
  {
    "value": "12",
    "province_id": "32",
    "label": "Kabupaten Agam",
    "postal_code": "26411"
  },
  {
    "value": "120",
    "province_id": "26",
    "label": "Kota Dumai",
    "postal_code": "28811"
  },
  {
    "value": "121",
    "province_id": "33",
    "label": "Kabupaten Empat Lawang",
    "postal_code": "31811"
  },
  {
    "value": "122",
    "province_id": "23",
    "label": "Kabupaten Ende",
    "postal_code": "86351"
  },
  {
    "value": "123",
    "province_id": "28",
    "label": "Kabupaten Enrekang",
    "postal_code": "91719"
  },
  {
    "value": "124",
    "province_id": "25",
    "label": "Kabupaten Fakfak",
    "postal_code": "98651"
  },
  {
    "value": "125",
    "province_id": "23",
    "label": "Kabupaten Flores Timur",
    "postal_code": "86213"
  },
  {
    "value": "126",
    "province_id": "9",
    "label": "Kabupaten Garut",
    "postal_code": "44126"
  },
  {
    "value": "127",
    "province_id": "21",
    "label": "Kabupaten Gayo Lues",
    "postal_code": "24653"
  },
  {
    "value": "128",
    "province_id": "1",
    "label": "Kabupaten Gianyar",
    "postal_code": "80519"
  },
  {
    "value": "129",
    "province_id": "7",
    "label": "Kabupaten Gorontalo",
    "postal_code": "96218"
  },
  {
    "value": "13",
    "province_id": "23",
    "label": "Kabupaten Alor",
    "postal_code": "85811"
  },
  {
    "value": "130",
    "province_id": "7",
    "label": "Kota Gorontalo",
    "postal_code": "96115"
  },
  {
    "value": "131",
    "province_id": "7",
    "label": "Kabupaten Gorontalo Utara",
    "postal_code": "96611"
  },
  {
    "value": "132",
    "province_id": "28",
    "label": "Kabupaten Gowa",
    "postal_code": "92111"
  },
  {
    "value": "133",
    "province_id": "11",
    "label": "Kabupaten Gresik",
    "postal_code": "61115"
  },
  {
    "value": "134",
    "province_id": "10",
    "label": "Kabupaten Grobogan",
    "postal_code": "58111"
  },
  {
    "value": "135",
    "province_id": "5",
    "label": "Kabupaten Gunung Kidul",
    "postal_code": "55812"
  },
  {
    "value": "136",
    "province_id": "14",
    "label": "Kabupaten Gunung Mas",
    "postal_code": "74511"
  },
  {
    "value": "137",
    "province_id": "34",
    "label": "Kota Gunungsitoli",
    "postal_code": "22813"
  },
  {
    "value": "138",
    "province_id": "20",
    "label": "Kabupaten Halmahera Barat",
    "postal_code": "97757"
  },
  {
    "value": "139",
    "province_id": "20",
    "label": "Kabupaten Halmahera Selatan",
    "postal_code": "97911"
  },
  {
    "value": "14",
    "province_id": "19",
    "label": "Kota Ambon",
    "postal_code": "97222"
  },
  {
    "value": "140",
    "province_id": "20",
    "label": "Kabupaten Halmahera Tengah",
    "postal_code": "97853"
  },
  {
    "value": "141",
    "province_id": "20",
    "label": "Kabupaten Halmahera Timur",
    "postal_code": "97862"
  },
  {
    "value": "142",
    "province_id": "20",
    "label": "Kabupaten Halmahera Utara",
    "postal_code": "97762"
  },
  {
    "value": "143",
    "province_id": "13",
    "label": "Kabupaten Hulu Sungai Selatan",
    "postal_code": "71212"
  },
  {
    "value": "144",
    "province_id": "13",
    "label": "Kabupaten Hulu Sungai Tengah",
    "postal_code": "71313"
  },
  {
    "value": "145",
    "province_id": "13",
    "label": "Kabupaten Hulu Sungai Utara",
    "postal_code": "71419"
  },
  {
    "value": "146",
    "province_id": "34",
    "label": "Kabupaten Humbang Hasundutan",
    "postal_code": "22457"
  },
  {
    "value": "147",
    "province_id": "26",
    "label": "Kabupaten Indragiri Hilir",
    "postal_code": "29212"
  },
  {
    "value": "148",
    "province_id": "26",
    "label": "Kabupaten Indragiri Hulu",
    "postal_code": "29319"
  },
  {
    "value": "149",
    "province_id": "9",
    "label": "Kabupaten Indramayu",
    "postal_code": "45214"
  },
  {
    "value": "15",
    "province_id": "34",
    "label": "Kabupaten Asahan",
    "postal_code": "21214"
  },
  {
    "value": "150",
    "province_id": "24",
    "label": "Kabupaten Intan Jaya",
    "postal_code": "98771"
  },
  {
    "value": "151",
    "province_id": "6",
    "label": "Kota Jakarta Barat",
    "postal_code": "11220"
  },
  {
    "value": "152",
    "province_id": "6",
    "label": "Kota Jakarta Pusat",
    "postal_code": "10540"
  },
  {
    "value": "153",
    "province_id": "6",
    "label": "Kota Jakarta Selatan",
    "postal_code": "12230"
  },
  {
    "value": "154",
    "province_id": "6",
    "label": "Kota Jakarta Timur",
    "postal_code": "13330"
  },
  {
    "value": "155",
    "province_id": "6",
    "label": "Kota Jakarta Utara",
    "postal_code": "14140"
  },
  {
    "value": "156",
    "province_id": "8",
    "label": "Kota Jambi",
    "postal_code": "36111"
  },
  {
    "value": "157",
    "province_id": "24",
    "label": "Kabupaten Jayapura",
    "postal_code": "99352"
  },
  {
    "value": "158",
    "province_id": "24",
    "label": "Kota Jayapura",
    "postal_code": "99114"
  },
  {
    "value": "159",
    "province_id": "24",
    "label": "Kabupaten Jayawijaya",
    "postal_code": "99511"
  },
  {
    "value": "16",
    "province_id": "24",
    "label": "Kabupaten Asmat",
    "postal_code": "99777"
  },
  {
    "value": "160",
    "province_id": "11",
    "label": "Kabupaten Jember",
    "postal_code": "68113"
  },
  {
    "value": "161",
    "province_id": "1",
    "label": "Kabupaten Jembrana",
    "postal_code": "82251"
  },
  {
    "value": "162",
    "province_id": "28",
    "label": "Kabupaten Jeneponto",
    "postal_code": "92319"
  },
  {
    "value": "163",
    "province_id": "10",
    "label": "Kabupaten Jepara",
    "postal_code": "59419"
  },
  {
    "value": "164",
    "province_id": "11",
    "label": "Kabupaten Jombang",
    "postal_code": "61415"
  },
  {
    "value": "165",
    "province_id": "25",
    "label": "Kabupaten Kaimana",
    "postal_code": "98671"
  },
  {
    "value": "166",
    "province_id": "26",
    "label": "Kabupaten Kampar",
    "postal_code": "28411"
  },
  {
    "value": "167",
    "province_id": "14",
    "label": "Kabupaten Kapuas",
    "postal_code": "73583"
  },
  {
    "value": "168",
    "province_id": "12",
    "label": "Kabupaten Kapuas Hulu",
    "postal_code": "78719"
  },
  {
    "value": "169",
    "province_id": "10",
    "label": "Kabupaten Karanganyar",
    "postal_code": "57718"
  },
  {
    "value": "17",
    "province_id": "1",
    "label": "Kabupaten Badung",
    "postal_code": "80351"
  },
  {
    "value": "170",
    "province_id": "1",
    "label": "Kabupaten Karangasem",
    "postal_code": "80819"
  },
  {
    "value": "171",
    "province_id": "9",
    "label": "Kabupaten Karawang",
    "postal_code": "41311"
  },
  {
    "value": "172",
    "province_id": "17",
    "label": "Kabupaten Karimun",
    "postal_code": "29611"
  },
  {
    "value": "173",
    "province_id": "34",
    "label": "Kabupaten Karo",
    "postal_code": "22119"
  },
  {
    "value": "174",
    "province_id": "14",
    "label": "Kabupaten Katingan",
    "postal_code": "74411"
  },
  {
    "value": "175",
    "province_id": "4",
    "label": "Kabupaten Kaur",
    "postal_code": "38911"
  },
  {
    "value": "176",
    "province_id": "12",
    "label": "Kabupaten Kayong Utara",
    "postal_code": "78852"
  },
  {
    "value": "177",
    "province_id": "10",
    "label": "Kabupaten Kebumen",
    "postal_code": "54319"
  },
  {
    "value": "178",
    "province_id": "11",
    "label": "Kabupaten Kediri",
    "postal_code": "64184"
  },
  {
    "value": "179",
    "province_id": "11",
    "label": "Kota Kediri",
    "postal_code": "64125"
  },
  {
    "value": "18",
    "province_id": "13",
    "label": "Kabupaten Balangan",
    "postal_code": "71611"
  },
  {
    "value": "180",
    "province_id": "24",
    "label": "Kabupaten Keerom",
    "postal_code": "99461"
  },
  {
    "value": "181",
    "province_id": "10",
    "label": "Kabupaten Kendal",
    "postal_code": "51314"
  },
  {
    "value": "182",
    "province_id": "30",
    "label": "Kota Kendari",
    "postal_code": "93126"
  },
  {
    "value": "183",
    "province_id": "4",
    "label": "Kabupaten Kepahiang",
    "postal_code": "39319"
  },
  {
    "value": "184",
    "province_id": "17",
    "label": "Kabupaten Kepulauan Anambas",
    "postal_code": "29991"
  },
  {
    "value": "185",
    "province_id": "19",
    "label": "Kabupaten Kepulauan Aru",
    "postal_code": "97681"
  },
  {
    "value": "186",
    "province_id": "32",
    "label": "Kabupaten Kepulauan Mentawai",
    "postal_code": "25771"
  },
  {
    "value": "187",
    "province_id": "26",
    "label": "Kabupaten Kepulauan Meranti",
    "postal_code": "28791"
  },
  {
    "value": "188",
    "province_id": "31",
    "label": "Kabupaten Kepulauan Sangihe",
    "postal_code": "95819"
  },
  {
    "value": "189",
    "province_id": "6",
    "label": "Kabupaten Kepulauan Seribu",
    "postal_code": "14550"
  },
  {
    "value": "19",
    "province_id": "15",
    "label": "Kota Balikpapan",
    "postal_code": "76111"
  },
  {
    "value": "190",
    "province_id": "31",
    "label": "Kabupaten Kepulauan Siau Tagulandang Biaro (Sitaro)",
    "postal_code": "95862"
  },
  {
    "value": "191",
    "province_id": "20",
    "label": "Kabupaten Kepulauan Sula",
    "postal_code": "97995"
  },
  {
    "value": "192",
    "province_id": "31",
    "label": "Kabupaten Kepulauan Talaud",
    "postal_code": "95885"
  },
  {
    "value": "193",
    "province_id": "24",
    "label": "Kabupaten Kepulauan Yapen (Yapen Waropen)",
    "postal_code": "98211"
  },
  {
    "value": "194",
    "province_id": "8",
    "label": "Kabupaten Kerinci",
    "postal_code": "37167"
  },
  {
    "value": "195",
    "province_id": "12",
    "label": "Kabupaten Ketapang",
    "postal_code": "78874"
  },
  {
    "value": "196",
    "province_id": "10",
    "label": "Kabupaten Klaten",
    "postal_code": "57411"
  },
  {
    "value": "197",
    "province_id": "1",
    "label": "Kabupaten Klungkung",
    "postal_code": "80719"
  },
  {
    "value": "198",
    "province_id": "30",
    "label": "Kabupaten Kolaka",
    "postal_code": "93511"
  },
  {
    "value": "199",
    "province_id": "30",
    "label": "Kabupaten Kolaka Utara",
    "postal_code": "93911"
  },
  {
    "value": "2",
    "province_id": "21",
    "label": "Kabupaten Aceh Barat Daya",
    "postal_code": "23764"
  },
  {
    "value": "20",
    "province_id": "21",
    "label": "Kota Banda Aceh",
    "postal_code": "23238"
  },
  {
    "value": "200",
    "province_id": "30",
    "label": "Kabupaten Konawe",
    "postal_code": "93411"
  },
  {
    "value": "201",
    "province_id": "30",
    "label": "Kabupaten Konawe Selatan",
    "postal_code": "93811"
  },
  {
    "value": "202",
    "province_id": "30",
    "label": "Kabupaten Konawe Utara",
    "postal_code": "93311"
  },
  {
    "value": "203",
    "province_id": "13",
    "label": "Kabupaten Kotabaru",
    "postal_code": "72119"
  },
  {
    "value": "204",
    "province_id": "31",
    "label": "Kota Kotamobagu",
    "postal_code": "95711"
  },
  {
    "value": "205",
    "province_id": "14",
    "label": "Kabupaten Kotawaringin Barat",
    "postal_code": "74119"
  },
  {
    "value": "206",
    "province_id": "14",
    "label": "Kabupaten Kotawaringin Timur",
    "postal_code": "74364"
  },
  {
    "value": "207",
    "province_id": "26",
    "label": "Kabupaten Kuantan Singingi",
    "postal_code": "29519"
  },
  {
    "value": "208",
    "province_id": "12",
    "label": "Kabupaten Kubu Raya",
    "postal_code": "78311"
  },
  {
    "value": "209",
    "province_id": "10",
    "label": "Kabupaten Kudus",
    "postal_code": "59311"
  },
  {
    "value": "21",
    "province_id": "18",
    "label": "Kota Bandar Lampung",
    "postal_code": "35139"
  },
  {
    "value": "210",
    "province_id": "5",
    "label": "Kabupaten Kulon Progo",
    "postal_code": "55611"
  },
  {
    "value": "211",
    "province_id": "9",
    "label": "Kabupaten Kuningan",
    "postal_code": "45511"
  },
  {
    "value": "212",
    "province_id": "23",
    "label": "Kabupaten Kupang",
    "postal_code": "85362"
  },
  {
    "value": "213",
    "province_id": "23",
    "label": "Kota Kupang",
    "postal_code": "85119"
  },
  {
    "value": "214",
    "province_id": "15",
    "label": "Kabupaten Kutai Barat",
    "postal_code": "75711"
  },
  {
    "value": "215",
    "province_id": "15",
    "label": "Kabupaten Kutai Kartanegara",
    "postal_code": "75511"
  },
  {
    "value": "216",
    "province_id": "15",
    "label": "Kabupaten Kutai Timur",
    "postal_code": "75611"
  },
  {
    "value": "217",
    "province_id": "34",
    "label": "Kabupaten Labuhan Batu",
    "postal_code": "21412"
  },
  {
    "value": "218",
    "province_id": "34",
    "label": "Kabupaten Labuhan Batu Selatan",
    "postal_code": "21511"
  },
  {
    "value": "219",
    "province_id": "34",
    "label": "Kabupaten Labuhan Batu Utara",
    "postal_code": "21711"
  },
  {
    "value": "22",
    "province_id": "9",
    "label": "Kabupaten Bandung",
    "postal_code": "40311"
  },
  {
    "value": "220",
    "province_id": "33",
    "label": "Kabupaten Lahat",
    "postal_code": "31419"
  },
  {
    "value": "221",
    "province_id": "14",
    "label": "Kabupaten Lamandau",
    "postal_code": "74611"
  },
  {
    "value": "222",
    "province_id": "11",
    "label": "Kabupaten Lamongan",
    "postal_code": "64125"
  },
  {
    "value": "223",
    "province_id": "18",
    "label": "Kabupaten Lampung Barat",
    "postal_code": "34814"
  },
  {
    "value": "224",
    "province_id": "18",
    "label": "Kabupaten Lampung Selatan",
    "postal_code": "35511"
  },
  {
    "value": "225",
    "province_id": "18",
    "label": "Kabupaten Lampung Tengah",
    "postal_code": "34212"
  },
  {
    "value": "226",
    "province_id": "18",
    "label": "Kabupaten Lampung Timur",
    "postal_code": "34319"
  },
  {
    "value": "227",
    "province_id": "18",
    "label": "Kabupaten Lampung Utara",
    "postal_code": "34516"
  },
  {
    "value": "228",
    "province_id": "12",
    "label": "Kabupaten Landak",
    "postal_code": "78319"
  },
  {
    "value": "229",
    "province_id": "34",
    "label": "Kabupaten Langkat",
    "postal_code": "20811"
  },
  {
    "value": "23",
    "province_id": "9",
    "label": "Kota Bandung",
    "postal_code": "40111"
  },
  {
    "value": "230",
    "province_id": "21",
    "label": "Kota Langsa",
    "postal_code": "24412"
  },
  {
    "value": "231",
    "province_id": "24",
    "label": "Kabupaten Lanny Jaya",
    "postal_code": "99531"
  },
  {
    "value": "232",
    "province_id": "3",
    "label": "Kabupaten Lebak",
    "postal_code": "42319"
  },
  {
    "value": "233",
    "province_id": "4",
    "label": "Kabupaten Lebong",
    "postal_code": "39264"
  },
  {
    "value": "234",
    "province_id": "23",
    "label": "Kabupaten Lembata",
    "postal_code": "86611"
  },
  {
    "value": "235",
    "province_id": "21",
    "label": "Kota Lhokseumawe",
    "postal_code": "24352"
  },
  {
    "value": "236",
    "province_id": "32",
    "label": "Kabupaten Lima Puluh Koto/Kota",
    "postal_code": "26671"
  },
  {
    "value": "237",
    "province_id": "17",
    "label": "Kabupaten Lingga",
    "postal_code": "29811"
  },
  {
    "value": "238",
    "province_id": "22",
    "label": "Kabupaten Lombok Barat",
    "postal_code": "83311"
  },
  {
    "value": "239",
    "province_id": "22",
    "label": "Kabupaten Lombok Tengah",
    "postal_code": "83511"
  },
  {
    "value": "24",
    "province_id": "9",
    "label": "Kabupaten Bandung Barat",
    "postal_code": "40721"
  },
  {
    "value": "240",
    "province_id": "22",
    "label": "Kabupaten Lombok Timur",
    "postal_code": "83612"
  },
  {
    "value": "241",
    "province_id": "22",
    "label": "Kabupaten Lombok Utara",
    "postal_code": "83711"
  },
  {
    "value": "242",
    "province_id": "33",
    "label": "Kota Lubuk Linggau",
    "postal_code": "31614"
  },
  {
    "value": "243",
    "province_id": "11",
    "label": "Kabupaten Lumajang",
    "postal_code": "67319"
  },
  {
    "value": "244",
    "province_id": "28",
    "label": "Kabupaten Luwu",
    "postal_code": "91994"
  },
  {
    "value": "245",
    "province_id": "28",
    "label": "Kabupaten Luwu Timur",
    "postal_code": "92981"
  },
  {
    "value": "246",
    "province_id": "28",
    "label": "Kabupaten Luwu Utara",
    "postal_code": "92911"
  },
  {
    "value": "247",
    "province_id": "11",
    "label": "Kabupaten Madiun",
    "postal_code": "63153"
  },
  {
    "value": "248",
    "province_id": "11",
    "label": "Kota Madiun",
    "postal_code": "63122"
  },
  {
    "value": "249",
    "province_id": "10",
    "label": "Kabupaten Magelang",
    "postal_code": "56519"
  },
  {
    "value": "25",
    "province_id": "29",
    "label": "Kabupaten Banggai",
    "postal_code": "94711"
  },
  {
    "value": "250",
    "province_id": "10",
    "label": "Kota Magelang",
    "postal_code": "56133"
  },
  {
    "value": "251",
    "province_id": "11",
    "label": "Kabupaten Magetan",
    "postal_code": "63314"
  },
  {
    "value": "252",
    "province_id": "9",
    "label": "Kabupaten Majalengka",
    "postal_code": "45412"
  },
  {
    "value": "253",
    "province_id": "27",
    "label": "Kabupaten Majene",
    "postal_code": "91411"
  },
  {
    "value": "254",
    "province_id": "28",
    "label": "Kota Makassar",
    "postal_code": "90111"
  },
  {
    "value": "255",
    "province_id": "11",
    "label": "Kabupaten Malang",
    "postal_code": "65163"
  },
  {
    "value": "256",
    "province_id": "11",
    "label": "Kota Malang",
    "postal_code": "65112"
  },
  {
    "value": "257",
    "province_id": "16",
    "label": "Kabupaten Malinau",
    "postal_code": "77511"
  },
  {
    "value": "258",
    "province_id": "19",
    "label": "Kabupaten Maluku Barat Daya",
    "postal_code": "97451"
  },
  {
    "value": "259",
    "province_id": "19",
    "label": "Kabupaten Maluku Tengah",
    "postal_code": "97513"
  },
  {
    "value": "26",
    "province_id": "29",
    "label": "Kabupaten Banggai Kepulauan",
    "postal_code": "94881"
  },
  {
    "value": "260",
    "province_id": "19",
    "label": "Kabupaten Maluku Tenggara",
    "postal_code": "97651"
  },
  {
    "value": "261",
    "province_id": "19",
    "label": "Kabupaten Maluku Tenggara Barat",
    "postal_code": "97465"
  },
  {
    "value": "262",
    "province_id": "27",
    "label": "Kabupaten Mamasa",
    "postal_code": "91362"
  },
  {
    "value": "263",
    "province_id": "24",
    "label": "Kabupaten Mamberamo Raya",
    "postal_code": "99381"
  },
  {
    "value": "264",
    "province_id": "24",
    "label": "Kabupaten Mamberamo Tengah",
    "postal_code": "99553"
  },
  {
    "value": "265",
    "province_id": "27",
    "label": "Kabupaten Mamuju",
    "postal_code": "91519"
  },
  {
    "value": "266",
    "province_id": "27",
    "label": "Kabupaten Mamuju Utara",
    "postal_code": "91571"
  },
  {
    "value": "267",
    "province_id": "31",
    "label": "Kota Manado",
    "postal_code": "95247"
  },
  {
    "value": "268",
    "province_id": "34",
    "label": "Kabupaten Mandailing Natal",
    "postal_code": "22916"
  },
  {
    "value": "269",
    "province_id": "23",
    "label": "Kabupaten Manggarai",
    "postal_code": "86551"
  },
  {
    "value": "27",
    "province_id": "2",
    "label": "Kabupaten Bangka",
    "postal_code": "33212"
  },
  {
    "value": "270",
    "province_id": "23",
    "label": "Kabupaten Manggarai Barat",
    "postal_code": "86711"
  },
  {
    "value": "271",
    "province_id": "23",
    "label": "Kabupaten Manggarai Timur",
    "postal_code": "86811"
  },
  {
    "value": "272",
    "province_id": "25",
    "label": "Kabupaten Manokwari",
    "postal_code": "98311"
  },
  {
    "value": "273",
    "province_id": "25",
    "label": "Kabupaten Manokwari Selatan",
    "postal_code": "98355"
  },
  {
    "value": "274",
    "province_id": "24",
    "label": "Kabupaten Mappi",
    "postal_code": "99853"
  },
  {
    "value": "275",
    "province_id": "28",
    "label": "Kabupaten Maros",
    "postal_code": "90511"
  },
  {
    "value": "276",
    "province_id": "22",
    "label": "Kota Mataram",
    "postal_code": "83131"
  },
  {
    "value": "277",
    "province_id": "25",
    "label": "Kabupaten Maybrat",
    "postal_code": "98051"
  },
  {
    "value": "278",
    "province_id": "34",
    "label": "Kota Medan",
    "postal_code": "20228"
  },
  {
    "value": "279",
    "province_id": "12",
    "label": "Kabupaten Melawi",
    "postal_code": "78619"
  },
  {
    "value": "28",
    "province_id": "2",
    "label": "Kabupaten Bangka Barat",
    "postal_code": "33315"
  },
  {
    "value": "280",
    "province_id": "8",
    "label": "Kabupaten Merangin",
    "postal_code": "37319"
  },
  {
    "value": "281",
    "province_id": "24",
    "label": "Kabupaten Merauke",
    "postal_code": "99613"
  },
  {
    "value": "282",
    "province_id": "18",
    "label": "Kabupaten Mesuji",
    "postal_code": "34911"
  },
  {
    "value": "283",
    "province_id": "18",
    "label": "Kota Metro",
    "postal_code": "34111"
  },
  {
    "value": "284",
    "province_id": "24",
    "label": "Kabupaten Mimika",
    "postal_code": "99962"
  },
  {
    "value": "285",
    "province_id": "31",
    "label": "Kabupaten Minahasa",
    "postal_code": "95614"
  },
  {
    "value": "286",
    "province_id": "31",
    "label": "Kabupaten Minahasa Selatan",
    "postal_code": "95914"
  },
  {
    "value": "287",
    "province_id": "31",
    "label": "Kabupaten Minahasa Tenggara",
    "postal_code": "95995"
  },
  {
    "value": "288",
    "province_id": "31",
    "label": "Kabupaten Minahasa Utara",
    "postal_code": "95316"
  },
  {
    "value": "289",
    "province_id": "11",
    "label": "Kabupaten Mojokerto",
    "postal_code": "61382"
  },
  {
    "value": "29",
    "province_id": "2",
    "label": "Kabupaten Bangka Selatan",
    "postal_code": "33719"
  },
  {
    "value": "290",
    "province_id": "11",
    "label": "Kota Mojokerto",
    "postal_code": "61316"
  },
  {
    "value": "291",
    "province_id": "29",
    "label": "Kabupaten Morowali",
    "postal_code": "94911"
  },
  {
    "value": "292",
    "province_id": "33",
    "label": "Kabupaten Muara Enim",
    "postal_code": "31315"
  },
  {
    "value": "293",
    "province_id": "8",
    "label": "Kabupaten Muaro Jambi",
    "postal_code": "36311"
  },
  {
    "value": "294",
    "province_id": "4",
    "label": "Kabupaten Muko Muko",
    "postal_code": "38715"
  },
  {
    "value": "295",
    "province_id": "30",
    "label": "Kabupaten Muna",
    "postal_code": "93611"
  },
  {
    "value": "296",
    "province_id": "14",
    "label": "Kabupaten Murung Raya",
    "postal_code": "73911"
  },
  {
    "value": "297",
    "province_id": "33",
    "label": "Kabupaten Musi Banyuasin",
    "postal_code": "30719"
  },
  {
    "value": "298",
    "province_id": "33",
    "label": "Kabupaten Musi Rawas",
    "postal_code": "31661"
  },
  {
    "value": "299",
    "province_id": "24",
    "label": "Kabupaten Nabire",
    "postal_code": "98816"
  },
  {
    "value": "3",
    "province_id": "21",
    "label": "Kabupaten Aceh Besar",
    "postal_code": "23951"
  },
  {
    "value": "30",
    "province_id": "2",
    "label": "Kabupaten Bangka Tengah",
    "postal_code": "33613"
  },
  {
    "value": "300",
    "province_id": "21",
    "label": "Kabupaten Nagan Raya",
    "postal_code": "23674"
  },
  {
    "value": "301",
    "province_id": "23",
    "label": "Kabupaten Nagekeo",
    "postal_code": "86911"
  },
  {
    "value": "302",
    "province_id": "17",
    "label": "Kabupaten Natuna",
    "postal_code": "29711"
  },
  {
    "value": "303",
    "province_id": "24",
    "label": "Kabupaten Nduga",
    "postal_code": "99541"
  },
  {
    "value": "304",
    "province_id": "23",
    "label": "Kabupaten Ngada",
    "postal_code": "86413"
  },
  {
    "value": "305",
    "province_id": "11",
    "label": "Kabupaten Nganjuk",
    "postal_code": "64414"
  },
  {
    "value": "306",
    "province_id": "11",
    "label": "Kabupaten Ngawi",
    "postal_code": "63219"
  },
  {
    "value": "307",
    "province_id": "34",
    "label": "Kabupaten Nias",
    "postal_code": "22876"
  },
  {
    "value": "308",
    "province_id": "34",
    "label": "Kabupaten Nias Barat",
    "postal_code": "22895"
  },
  {
    "value": "309",
    "province_id": "34",
    "label": "Kabupaten Nias Selatan",
    "postal_code": "22865"
  },
  {
    "value": "31",
    "province_id": "11",
    "label": "Kabupaten Bangkalan",
    "postal_code": "69118"
  },
  {
    "value": "310",
    "province_id": "34",
    "label": "Kabupaten Nias Utara",
    "postal_code": "22856"
  },
  {
    "value": "311",
    "province_id": "16",
    "label": "Kabupaten Nunukan",
    "postal_code": "77421"
  },
  {
    "value": "312",
    "province_id": "33",
    "label": "Kabupaten Ogan Ilir",
    "postal_code": "30811"
  },
  {
    "value": "313",
    "province_id": "33",
    "label": "Kabupaten Ogan Komering Ilir",
    "postal_code": "30618"
  },
  {
    "value": "314",
    "province_id": "33",
    "label": "Kabupaten Ogan Komering Ulu",
    "postal_code": "32112"
  },
  {
    "value": "315",
    "province_id": "33",
    "label": "Kabupaten Ogan Komering Ulu Selatan",
    "postal_code": "32211"
  },
  {
    "value": "316",
    "province_id": "33",
    "label": "Kabupaten Ogan Komering Ulu Timur",
    "postal_code": "32312"
  },
  {
    "value": "317",
    "province_id": "11",
    "label": "Kabupaten Pacitan",
    "postal_code": "63512"
  },
  {
    "value": "318",
    "province_id": "32",
    "label": "Kota Padang",
    "postal_code": "25112"
  },
  {
    "value": "319",
    "province_id": "34",
    "label": "Kabupaten Padang Lawas",
    "postal_code": "22763"
  },
  {
    "value": "32",
    "province_id": "1",
    "label": "Kabupaten Bangli",
    "postal_code": "80619"
  },
  {
    "value": "320",
    "province_id": "34",
    "label": "Kabupaten Padang Lawas Utara",
    "postal_code": "22753"
  },
  {
    "value": "321",
    "province_id": "32",
    "label": "Kota Padang Panjang",
    "postal_code": "27122"
  },
  {
    "value": "322",
    "province_id": "32",
    "label": "Kabupaten Padang Pariaman",
    "postal_code": "25583"
  },
  {
    "value": "323",
    "province_id": "34",
    "label": "Kota Padang Sidempuan",
    "postal_code": "22727"
  },
  {
    "value": "324",
    "province_id": "33",
    "label": "Kota Pagar Alam",
    "postal_code": "31512"
  },
  {
    "value": "325",
    "province_id": "34",
    "label": "Kabupaten Pakpak Bharat",
    "postal_code": "22272"
  },
  {
    "value": "326",
    "province_id": "14",
    "label": "Kota Palangka Raya",
    "postal_code": "73112"
  },
  {
    "value": "327",
    "province_id": "33",
    "label": "Kota Palembang",
    "postal_code": "31512"
  },
  {
    "value": "328",
    "province_id": "28",
    "label": "Kota Palopo",
    "postal_code": "91911"
  },
  {
    "value": "329",
    "province_id": "29",
    "label": "Kota Palu",
    "postal_code": "94111"
  },
  {
    "value": "33",
    "province_id": "13",
    "label": "Kabupaten Banjar",
    "postal_code": "70619"
  },
  {
    "value": "330",
    "province_id": "11",
    "label": "Kabupaten Pamekasan",
    "postal_code": "69319"
  },
  {
    "value": "331",
    "province_id": "3",
    "label": "Kabupaten Pandeglang",
    "postal_code": "42212"
  },
  {
    "value": "332",
    "province_id": "9",
    "label": "Kabupaten Pangandaran",
    "postal_code": "46511"
  },
  {
    "value": "333",
    "province_id": "28",
    "label": "Kabupaten Pangkajene Kepulauan",
    "postal_code": "90611"
  },
  {
    "value": "334",
    "province_id": "2",
    "label": "Kota Pangkal Pinang",
    "postal_code": "33115"
  },
  {
    "value": "335",
    "province_id": "24",
    "label": "Kabupaten Paniai",
    "postal_code": "98765"
  },
  {
    "value": "336",
    "province_id": "28",
    "label": "Kota Parepare",
    "postal_code": "91123"
  },
  {
    "value": "337",
    "province_id": "32",
    "label": "Kota Pariaman",
    "postal_code": "25511"
  },
  {
    "value": "338",
    "province_id": "29",
    "label": "Kabupaten Parigi Moutong",
    "postal_code": "94411"
  },
  {
    "value": "339",
    "province_id": "32",
    "label": "Kabupaten Pasaman",
    "postal_code": "26318"
  },
  {
    "value": "34",
    "province_id": "9",
    "label": "Kota Banjar",
    "postal_code": "46311"
  },
  {
    "value": "340",
    "province_id": "32",
    "label": "Kabupaten Pasaman Barat",
    "postal_code": "26511"
  },
  {
    "value": "341",
    "province_id": "15",
    "label": "Kabupaten Paser",
    "postal_code": "76211"
  },
  {
    "value": "342",
    "province_id": "11",
    "label": "Kabupaten Pasuruan",
    "postal_code": "67153"
  },
  {
    "value": "343",
    "province_id": "11",
    "label": "Kota Pasuruan",
    "postal_code": "67118"
  },
  {
    "value": "344",
    "province_id": "10",
    "label": "Kabupaten Pati",
    "postal_code": "59114"
  },
  {
    "value": "345",
    "province_id": "32",
    "label": "Kota Payakumbuh",
    "postal_code": "26213"
  },
  {
    "value": "346",
    "province_id": "25",
    "label": "Kabupaten Pegunungan Arfak",
    "postal_code": "98354"
  },
  {
    "value": "347",
    "province_id": "24",
    "label": "Kabupaten Pegunungan Bintang",
    "postal_code": "99573"
  },
  {
    "value": "348",
    "province_id": "10",
    "label": "Kabupaten Pekalongan",
    "postal_code": "51161"
  },
  {
    "value": "349",
    "province_id": "10",
    "label": "Kota Pekalongan",
    "postal_code": "51122"
  },
  {
    "value": "35",
    "province_id": "13",
    "label": "Kota Banjarbaru",
    "postal_code": "70712"
  },
  {
    "value": "350",
    "province_id": "26",
    "label": "Kota Pekanbaru",
    "postal_code": "28112"
  },
  {
    "value": "351",
    "province_id": "26",
    "label": "Kabupaten Pelalawan",
    "postal_code": "28311"
  },
  {
    "value": "352",
    "province_id": "10",
    "label": "Kabupaten Pemalang",
    "postal_code": "52319"
  },
  {
    "value": "353",
    "province_id": "34",
    "label": "Kota Pematang Siantar",
    "postal_code": "21126"
  },
  {
    "value": "354",
    "province_id": "15",
    "label": "Kabupaten Penajam Paser Utara",
    "postal_code": "76311"
  },
  {
    "value": "355",
    "province_id": "18",
    "label": "Kabupaten Pesawaran",
    "postal_code": "35312"
  },
  {
    "value": "356",
    "province_id": "18",
    "label": "Kabupaten Pesisir Barat",
    "postal_code": "35974"
  },
  {
    "value": "357",
    "province_id": "32",
    "label": "Kabupaten Pesisir Selatan",
    "postal_code": "25611"
  },
  {
    "value": "358",
    "province_id": "21",
    "label": "Kabupaten Pidie",
    "postal_code": "24116"
  },
  {
    "value": "359",
    "province_id": "21",
    "label": "Kabupaten Pidie Jaya",
    "postal_code": "24186"
  },
  {
    "value": "36",
    "province_id": "13",
    "label": "Kota Banjarmasin",
    "postal_code": "70117"
  },
  {
    "value": "360",
    "province_id": "28",
    "label": "Kabupaten Pinrang",
    "postal_code": "91251"
  },
  {
    "value": "361",
    "province_id": "7",
    "label": "Kabupaten Pohuwato",
    "postal_code": "96419"
  },
  {
    "value": "362",
    "province_id": "27",
    "label": "Kabupaten Polewali Mandar",
    "postal_code": "91311"
  },
  {
    "value": "363",
    "province_id": "11",
    "label": "Kabupaten Ponorogo",
    "postal_code": "63411"
  },
  {
    "value": "364",
    "province_id": "12",
    "label": "Kabupaten Pontianak",
    "postal_code": "78971"
  },
  {
    "value": "365",
    "province_id": "12",
    "label": "Kota Pontianak",
    "postal_code": "78112"
  },
  {
    "value": "366",
    "province_id": "29",
    "label": "Kabupaten Poso",
    "postal_code": "94615"
  },
  {
    "value": "367",
    "province_id": "33",
    "label": "Kota Prabumulih",
    "postal_code": "31121"
  },
  {
    "value": "368",
    "province_id": "18",
    "label": "Kabupaten Pringsewu",
    "postal_code": "35719"
  },
  {
    "value": "369",
    "province_id": "11",
    "label": "Kabupaten Probolinggo",
    "postal_code": "67282"
  },
  {
    "value": "37",
    "province_id": "10",
    "label": "Kabupaten Banjarnegara",
    "postal_code": "53419"
  },
  {
    "value": "370",
    "province_id": "11",
    "label": "Kota Probolinggo",
    "postal_code": "67215"
  },
  {
    "value": "371",
    "province_id": "14",
    "label": "Kabupaten Pulang Pisau",
    "postal_code": "74811"
  },
  {
    "value": "372",
    "province_id": "20",
    "label": "Kabupaten Pulau Morotai",
    "postal_code": "97771"
  },
  {
    "value": "373",
    "province_id": "24",
    "label": "Kabupaten Puncak",
    "postal_code": "98981"
  },
  {
    "value": "374",
    "province_id": "24",
    "label": "Kabupaten Puncak Jaya",
    "postal_code": "98979"
  },
  {
    "value": "375",
    "province_id": "10",
    "label": "Kabupaten Purbalingga",
    "postal_code": "53312"
  },
  {
    "value": "376",
    "province_id": "9",
    "label": "Kabupaten Purwakarta",
    "postal_code": "41119"
  },
  {
    "value": "377",
    "province_id": "10",
    "label": "Kabupaten Purworejo",
    "postal_code": "54111"
  },
  {
    "value": "378",
    "province_id": "25",
    "label": "Kabupaten Raja Ampat",
    "postal_code": "98489"
  },
  {
    "value": "379",
    "province_id": "4",
    "label": "Kabupaten Rejang Lebong",
    "postal_code": "39112"
  },
  {
    "value": "38",
    "province_id": "28",
    "label": "Kabupaten Bantaeng",
    "postal_code": "92411"
  },
  {
    "value": "380",
    "province_id": "10",
    "label": "Kabupaten Rembang",
    "postal_code": "59219"
  },
  {
    "value": "381",
    "province_id": "26",
    "label": "Kabupaten Rokan Hilir",
    "postal_code": "28992"
  },
  {
    "value": "382",
    "province_id": "26",
    "label": "Kabupaten Rokan Hulu",
    "postal_code": "28511"
  },
  {
    "value": "383",
    "province_id": "23",
    "label": "Kabupaten Rote Ndao",
    "postal_code": "85982"
  },
  {
    "value": "384",
    "province_id": "21",
    "label": "Kota Sabang",
    "postal_code": "23512"
  },
  {
    "value": "385",
    "province_id": "23",
    "label": "Kabupaten Sabu Raijua",
    "postal_code": "85391"
  },
  {
    "value": "386",
    "province_id": "10",
    "label": "Kota Salatiga",
    "postal_code": "50711"
  },
  {
    "value": "387",
    "province_id": "15",
    "label": "Kota Samarinda",
    "postal_code": "75133"
  },
  {
    "value": "388",
    "province_id": "12",
    "label": "Kabupaten Sambas",
    "postal_code": "79453"
  },
  {
    "value": "389",
    "province_id": "34",
    "label": "Kabupaten Samosir",
    "postal_code": "22392"
  },
  {
    "value": "39",
    "province_id": "5",
    "label": "Kabupaten Bantul",
    "postal_code": "55715"
  },
  {
    "value": "390",
    "province_id": "11",
    "label": "Kabupaten Sampang",
    "postal_code": "69219"
  },
  {
    "value": "391",
    "province_id": "12",
    "label": "Kabupaten Sanggau",
    "postal_code": "78557"
  },
  {
    "value": "392",
    "province_id": "24",
    "label": "Kabupaten Sarmi",
    "postal_code": "99373"
  },
  {
    "value": "393",
    "province_id": "8",
    "label": "Kabupaten Sarolangun",
    "postal_code": "37419"
  },
  {
    "value": "394",
    "province_id": "32",
    "label": "Kota Sawah Lunto",
    "postal_code": "27416"
  },
  {
    "value": "395",
    "province_id": "12",
    "label": "Kabupaten Sekadau",
    "postal_code": "79583"
  },
  {
    "value": "396",
    "province_id": "28",
    "label": "Kabupaten Selayar (Kepulauan Selayar)",
    "postal_code": "92812"
  },
  {
    "value": "397",
    "province_id": "4",
    "label": "Kabupaten Seluma",
    "postal_code": "38811"
  },
  {
    "value": "398",
    "province_id": "10",
    "label": "Kabupaten Semarang",
    "postal_code": "50511"
  },
  {
    "value": "399",
    "province_id": "10",
    "label": "Kota Semarang",
    "postal_code": "50135"
  },
  {
    "value": "4",
    "province_id": "21",
    "label": "Kabupaten Aceh Jaya",
    "postal_code": "23654"
  },
  {
    "value": "40",
    "province_id": "33",
    "label": "Kabupaten Banyuasin",
    "postal_code": "30911"
  },
  {
    "value": "400",
    "province_id": "19",
    "label": "Kabupaten Seram Bagian Barat",
    "postal_code": "97561"
  },
  {
    "value": "401",
    "province_id": "19",
    "label": "Kabupaten Seram Bagian Timur",
    "postal_code": "97581"
  },
  {
    "value": "402",
    "province_id": "3",
    "label": "Kabupaten Serang",
    "postal_code": "42182"
  },
  {
    "value": "403",
    "province_id": "3",
    "label": "Kota Serang",
    "postal_code": "42111"
  },
  {
    "value": "404",
    "province_id": "34",
    "label": "Kabupaten Serdang Bedagai",
    "postal_code": "20915"
  },
  {
    "value": "405",
    "province_id": "14",
    "label": "Kabupaten Seruyan",
    "postal_code": "74211"
  },
  {
    "value": "406",
    "province_id": "26",
    "label": "Kabupaten Siak",
    "postal_code": "28623"
  },
  {
    "value": "407",
    "province_id": "34",
    "label": "Kota Sibolga",
    "postal_code": "22522"
  },
  {
    "value": "408",
    "province_id": "28",
    "label": "Kabupaten Sidenreng Rappang/Rapang",
    "postal_code": "91613"
  },
  {
    "value": "409",
    "province_id": "11",
    "label": "Kabupaten Sidoarjo",
    "postal_code": "61219"
  },
  {
    "value": "41",
    "province_id": "10",
    "label": "Kabupaten Banyumas",
    "postal_code": "53114"
  },
  {
    "value": "410",
    "province_id": "29",
    "label": "Kabupaten Sigi",
    "postal_code": "94364"
  },
  {
    "value": "411",
    "province_id": "32",
    "label": "Kabupaten Sijunjung (Sawah Lunto Sijunjung)",
    "postal_code": "27511"
  },
  {
    "value": "412",
    "province_id": "23",
    "label": "Kabupaten Sikka",
    "postal_code": "86121"
  },
  {
    "value": "413",
    "province_id": "34",
    "label": "Kabupaten Simalungun",
    "postal_code": "21162"
  },
  {
    "value": "414",
    "province_id": "21",
    "label": "Kabupaten Simeulue",
    "postal_code": "23891"
  },
  {
    "value": "415",
    "province_id": "12",
    "label": "Kota Singkawang",
    "postal_code": "79117"
  },
  {
    "value": "416",
    "province_id": "28",
    "label": "Kabupaten Sinjai",
    "postal_code": "92615"
  },
  {
    "value": "417",
    "province_id": "12",
    "label": "Kabupaten Sintang",
    "postal_code": "78619"
  },
  {
    "value": "418",
    "province_id": "11",
    "label": "Kabupaten Situbondo",
    "postal_code": "68316"
  },
  {
    "value": "419",
    "province_id": "5",
    "label": "Kabupaten Sleman",
    "postal_code": "55513"
  },
  {
    "value": "42",
    "province_id": "11",
    "label": "Kabupaten Banyuwangi",
    "postal_code": "68416"
  },
  {
    "value": "420",
    "province_id": "32",
    "label": "Kabupaten Solok",
    "postal_code": "27365"
  },
  {
    "value": "421",
    "province_id": "32",
    "label": "Kota Solok",
    "postal_code": "27315"
  },
  {
    "value": "422",
    "province_id": "32",
    "label": "Kabupaten Solok Selatan",
    "postal_code": "27779"
  },
  {
    "value": "423",
    "province_id": "28",
    "label": "Kabupaten Soppeng",
    "postal_code": "90812"
  },
  {
    "value": "424",
    "province_id": "25",
    "label": "Kabupaten Sorong",
    "postal_code": "98431"
  },
  {
    "value": "425",
    "province_id": "25",
    "label": "Kota Sorong",
    "postal_code": "98411"
  },
  {
    "value": "426",
    "province_id": "25",
    "label": "Kabupaten Sorong Selatan",
    "postal_code": "98454"
  },
  {
    "value": "427",
    "province_id": "10",
    "label": "Kabupaten Sragen",
    "postal_code": "57211"
  },
  {
    "value": "428",
    "province_id": "9",
    "label": "Kabupaten Subang",
    "postal_code": "41215"
  },
  {
    "value": "429",
    "province_id": "21",
    "label": "Kota Subulussalam",
    "postal_code": "24882"
  },
  {
    "value": "43",
    "province_id": "13",
    "label": "Kabupaten Barito Kuala",
    "postal_code": "70511"
  },
  {
    "value": "430",
    "province_id": "9",
    "label": "Kabupaten Sukabumi",
    "postal_code": "43311"
  },
  {
    "value": "431",
    "province_id": "9",
    "label": "Kota Sukabumi",
    "postal_code": "43114"
  },
  {
    "value": "432",
    "province_id": "14",
    "label": "Kabupaten Sukamara",
    "postal_code": "74712"
  },
  {
    "value": "433",
    "province_id": "10",
    "label": "Kabupaten Sukoharjo",
    "postal_code": "57514"
  },
  {
    "value": "434",
    "province_id": "23",
    "label": "Kabupaten Sumba Barat",
    "postal_code": "87219"
  },
  {
    "value": "435",
    "province_id": "23",
    "label": "Kabupaten Sumba Barat Daya",
    "postal_code": "87453"
  },
  {
    "value": "436",
    "province_id": "23",
    "label": "Kabupaten Sumba Tengah",
    "postal_code": "87358"
  },
  {
    "value": "437",
    "province_id": "23",
    "label": "Kabupaten Sumba Timur",
    "postal_code": "87112"
  },
  {
    "value": "438",
    "province_id": "22",
    "label": "Kabupaten Sumbawa",
    "postal_code": "84315"
  },
  {
    "value": "439",
    "province_id": "22",
    "label": "Kabupaten Sumbawa Barat",
    "postal_code": "84419"
  },
  {
    "value": "44",
    "province_id": "14",
    "label": "Kabupaten Barito Selatan",
    "postal_code": "73711"
  },
  {
    "value": "440",
    "province_id": "9",
    "label": "Kabupaten Sumedang",
    "postal_code": "45326"
  },
  {
    "value": "441",
    "province_id": "11",
    "label": "Kabupaten Sumenep",
    "postal_code": "69413"
  },
  {
    "value": "442",
    "province_id": "8",
    "label": "Kota Sungaipenuh",
    "postal_code": "37113"
  },
  {
    "value": "443",
    "province_id": "24",
    "label": "Kabupaten Supiori",
    "postal_code": "98164"
  },
  {
    "value": "444",
    "province_id": "11",
    "label": "Kota Surabaya",
    "postal_code": "60119"
  },
  {
    "value": "445",
    "province_id": "10",
    "label": "Kota Surakarta (Solo)",
    "postal_code": "57113"
  },
  {
    "value": "446",
    "province_id": "13",
    "label": "Kabupaten Tabalong",
    "postal_code": "71513"
  },
  {
    "value": "447",
    "province_id": "1",
    "label": "Kabupaten Tabanan",
    "postal_code": "82119"
  },
  {
    "value": "448",
    "province_id": "28",
    "label": "Kabupaten Takalar",
    "postal_code": "92212"
  },
  {
    "value": "449",
    "province_id": "25",
    "label": "Kabupaten Tambrauw",
    "postal_code": "98475"
  },
  {
    "value": "45",
    "province_id": "14",
    "label": "Kabupaten Barito Timur",
    "postal_code": "73671"
  },
  {
    "value": "450",
    "province_id": "16",
    "label": "Kabupaten Tana Tidung",
    "postal_code": "77611"
  },
  {
    "value": "451",
    "province_id": "28",
    "label": "Kabupaten Tana Toraja",
    "postal_code": "91819"
  },
  {
    "value": "452",
    "province_id": "13",
    "label": "Kabupaten Tanah Bumbu",
    "postal_code": "72211"
  },
  {
    "value": "453",
    "province_id": "32",
    "label": "Kabupaten Tanah Datar",
    "postal_code": "27211"
  },
  {
    "value": "454",
    "province_id": "13",
    "label": "Kabupaten Tanah Laut",
    "postal_code": "70811"
  },
  {
    "value": "455",
    "province_id": "3",
    "label": "Kabupaten Tangerang",
    "postal_code": "15914"
  },
  {
    "value": "456",
    "province_id": "3",
    "label": "Kota Tangerang",
    "postal_code": "15111"
  },
  {
    "value": "457",
    "province_id": "3",
    "label": "Kota Tangerang Selatan",
    "postal_code": "15332"
  },
  {
    "value": "458",
    "province_id": "18",
    "label": "Kabupaten Tanggamus",
    "postal_code": "35619"
  },
  {
    "value": "459",
    "province_id": "34",
    "label": "Kota Tanjung Balai",
    "postal_code": "21321"
  },
  {
    "value": "46",
    "province_id": "14",
    "label": "Kabupaten Barito Utara",
    "postal_code": "73881"
  },
  {
    "value": "460",
    "province_id": "8",
    "label": "Kabupaten Tanjung Jabung Barat",
    "postal_code": "36513"
  },
  {
    "value": "461",
    "province_id": "8",
    "label": "Kabupaten Tanjung Jabung Timur",
    "postal_code": "36719"
  },
  {
    "value": "462",
    "province_id": "17",
    "label": "Kota Tanjung Pinang",
    "postal_code": "29111"
  },
  {
    "value": "463",
    "province_id": "34",
    "label": "Kabupaten Tapanuli Selatan",
    "postal_code": "22742"
  },
  {
    "value": "464",
    "province_id": "34",
    "label": "Kabupaten Tapanuli Tengah",
    "postal_code": "22611"
  },
  {
    "value": "465",
    "province_id": "34",
    "label": "Kabupaten Tapanuli Utara",
    "postal_code": "22414"
  },
  {
    "value": "466",
    "province_id": "13",
    "label": "Kabupaten Tapin",
    "postal_code": "71119"
  },
  {
    "value": "467",
    "province_id": "16",
    "label": "Kota Tarakan",
    "postal_code": "77114"
  },
  {
    "value": "468",
    "province_id": "9",
    "label": "Kabupaten Tasikmalaya",
    "postal_code": "46411"
  },
  {
    "value": "469",
    "province_id": "9",
    "label": "Kota Tasikmalaya",
    "postal_code": "46116"
  },
  {
    "value": "47",
    "province_id": "28",
    "label": "Kabupaten Barru",
    "postal_code": "90719"
  },
  {
    "value": "470",
    "province_id": "34",
    "label": "Kota Tebing Tinggi",
    "postal_code": "20632"
  },
  {
    "value": "471",
    "province_id": "8",
    "label": "Kabupaten Tebo",
    "postal_code": "37519"
  },
  {
    "value": "472",
    "province_id": "10",
    "label": "Kabupaten Tegal",
    "postal_code": "52419"
  },
  {
    "value": "473",
    "province_id": "10",
    "label": "Kota Tegal",
    "postal_code": "52114"
  },
  {
    "value": "474",
    "province_id": "25",
    "label": "Kabupaten Teluk Bintuni",
    "postal_code": "98551"
  },
  {
    "value": "475",
    "province_id": "25",
    "label": "Kabupaten Teluk Wondama",
    "postal_code": "98591"
  },
  {
    "value": "476",
    "province_id": "10",
    "label": "Kabupaten Temanggung",
    "postal_code": "56212"
  },
  {
    "value": "477",
    "province_id": "20",
    "label": "Kota Ternate",
    "postal_code": "97714"
  },
  {
    "value": "478",
    "province_id": "20",
    "label": "Kota Tidore Kepulauan",
    "postal_code": "97815"
  },
  {
    "value": "479",
    "province_id": "23",
    "label": "Kabupaten Timor Tengah Selatan",
    "postal_code": "85562"
  },
  {
    "value": "48",
    "province_id": "17",
    "label": "Kota Batam",
    "postal_code": "29413"
  },
  {
    "value": "480",
    "province_id": "23",
    "label": "Kabupaten Timor Tengah Utara",
    "postal_code": "85612"
  },
  {
    "value": "481",
    "province_id": "34",
    "label": "Kabupaten Toba Samosir",
    "postal_code": "22316"
  },
  {
    "value": "482",
    "province_id": "29",
    "label": "Kabupaten Tojo Una-Una",
    "postal_code": "94683"
  },
  {
    "value": "483",
    "province_id": "29",
    "label": "Kabupaten Toli-Toli",
    "postal_code": "94542"
  },
  {
    "value": "484",
    "province_id": "24",
    "label": "Kabupaten Tolikara",
    "postal_code": "99411"
  },
  {
    "value": "485",
    "province_id": "31",
    "label": "Kota Tomohon",
    "postal_code": "95416"
  },
  {
    "value": "486",
    "province_id": "28",
    "label": "Kabupaten Toraja Utara",
    "postal_code": "91831"
  },
  {
    "value": "487",
    "province_id": "11",
    "label": "Kabupaten Trenggalek",
    "postal_code": "66312"
  },
  {
    "value": "488",
    "province_id": "19",
    "label": "Kota Tual",
    "postal_code": "97612"
  },
  {
    "value": "489",
    "province_id": "11",
    "label": "Kabupaten Tuban",
    "postal_code": "62319"
  },
  {
    "value": "49",
    "province_id": "10",
    "label": "Kabupaten Batang",
    "postal_code": "51211"
  },
  {
    "value": "490",
    "province_id": "18",
    "label": "Kabupaten Tulang Bawang",
    "postal_code": "34613"
  },
  {
    "value": "491",
    "province_id": "18",
    "label": "Kabupaten Tulang Bawang Barat",
    "postal_code": "34419"
  },
  {
    "value": "492",
    "province_id": "11",
    "label": "Kabupaten Tulungagung",
    "postal_code": "66212"
  },
  {
    "value": "493",
    "province_id": "28",
    "label": "Kabupaten Wajo",
    "postal_code": "90911"
  },
  {
    "value": "494",
    "province_id": "30",
    "label": "Kabupaten Wakatobi",
    "postal_code": "93791"
  },
  {
    "value": "495",
    "province_id": "24",
    "label": "Kabupaten Waropen",
    "postal_code": "98269"
  },
  {
    "value": "496",
    "province_id": "18",
    "label": "Kabupaten Way Kanan",
    "postal_code": "34711"
  },
  {
    "value": "497",
    "province_id": "10",
    "label": "Kabupaten Wonogiri",
    "postal_code": "57619"
  },
  {
    "value": "498",
    "province_id": "10",
    "label": "Kabupaten Wonosobo",
    "postal_code": "56311"
  },
  {
    "value": "499",
    "province_id": "24",
    "label": "Kabupaten Yahukimo",
    "postal_code": "99041"
  },
  {
    "value": "5",
    "province_id": "21",
    "label": "Kabupaten Aceh Selatan",
    "postal_code": "23719"
  },
  {
    "value": "50",
    "province_id": "8",
    "label": "Kabupaten Batang Hari",
    "postal_code": "36613"
  },
  {
    "value": "500",
    "province_id": "24",
    "label": "Kabupaten Yalimo",
    "postal_code": "99481"
  },
  {
    "value": "501",
    "province_id": "5",
    "label": "Kota Yogyakarta",
    "postal_code": "55222"
  },
  {
    "value": "51",
    "province_id": "11",
    "label": "Kota Batu",
    "postal_code": "65311"
  },
  {
    "value": "52",
    "province_id": "34",
    "label": "Kabupaten Batu Bara",
    "postal_code": "21655"
  },
  {
    "value": "53",
    "province_id": "30",
    "label": "Kota Bau-Bau",
    "postal_code": "93719"
  },
  {
    "value": "54",
    "province_id": "9",
    "label": "Kabupaten Bekasi",
    "postal_code": "17837"
  },
  {
    "value": "55",
    "province_id": "9",
    "label": "Kota Bekasi",
    "postal_code": "17121"
  },
  {
    "value": "56",
    "province_id": "2",
    "label": "Kabupaten Belitung",
    "postal_code": "33419"
  },
  {
    "value": "57",
    "province_id": "2",
    "label": "Kabupaten Belitung Timur",
    "postal_code": "33519"
  },
  {
    "value": "58",
    "province_id": "23",
    "label": "Kabupaten Belu",
    "postal_code": "85711"
  },
  {
    "value": "59",
    "province_id": "21",
    "label": "Kabupaten Bener Meriah",
    "postal_code": "24581"
  },
  {
    "value": "6",
    "province_id": "21",
    "label": "Kabupaten Aceh Singkil",
    "postal_code": "24785"
  },
  {
    "value": "60",
    "province_id": "26",
    "label": "Kabupaten Bengkalis",
    "postal_code": "28719"
  },
  {
    "value": "61",
    "province_id": "12",
    "label": "Kabupaten Bengkayang",
    "postal_code": "79213"
  },
  {
    "value": "62",
    "province_id": "4",
    "label": "Kota Bengkulu",
    "postal_code": "38229"
  },
  {
    "value": "63",
    "province_id": "4",
    "label": "Kabupaten Bengkulu Selatan",
    "postal_code": "38519"
  },
  {
    "value": "64",
    "province_id": "4",
    "label": "Kabupaten Bengkulu Tengah",
    "postal_code": "38319"
  },
  {
    "value": "65",
    "province_id": "4",
    "label": "Kabupaten Bengkulu Utara",
    "postal_code": "38619"
  },
  {
    "value": "66",
    "province_id": "15",
    "label": "Kabupaten Berau",
    "postal_code": "77311"
  },
  {
    "value": "67",
    "province_id": "24",
    "label": "Kabupaten Biak Numfor",
    "postal_code": "98119"
  },
  {
    "value": "68",
    "province_id": "22",
    "label": "Kabupaten Bima",
    "postal_code": "84171"
  },
  {
    "value": "69",
    "province_id": "22",
    "label": "Kota Bima",
    "postal_code": "84139"
  },
  {
    "value": "7",
    "province_id": "21",
    "label": "Kabupaten Aceh Tamiang",
    "postal_code": "24476"
  },
  {
    "value": "70",
    "province_id": "34",
    "label": "Kota Binjai",
    "postal_code": "20712"
  },
  {
    "value": "71",
    "province_id": "17",
    "label": "Kabupaten Bintan",
    "postal_code": "29135"
  },
  {
    "value": "72",
    "province_id": "21",
    "label": "Kabupaten Bireuen",
    "postal_code": "24219"
  },
  {
    "value": "73",
    "province_id": "31",
    "label": "Kota Bitung",
    "postal_code": "95512"
  },
  {
    "value": "74",
    "province_id": "11",
    "label": "Kabupaten Blitar",
    "postal_code": "66171"
  },
  {
    "value": "75",
    "province_id": "11",
    "label": "Kota Blitar",
    "postal_code": "66124"
  },
  {
    "value": "76",
    "province_id": "10",
    "label": "Kabupaten Blora",
    "postal_code": "58219"
  },
  {
    "value": "77",
    "province_id": "7",
    "label": "Kabupaten Boalemo",
    "postal_code": "96319"
  },
  {
    "value": "78",
    "province_id": "9",
    "label": "Kabupaten Bogor",
    "postal_code": "16911"
  },
  {
    "value": "79",
    "province_id": "9",
    "label": "Kota Bogor",
    "postal_code": "16119"
  },
  {
    "value": "8",
    "province_id": "21",
    "label": "Kabupaten Aceh Tengah",
    "postal_code": "24511"
  },
  {
    "value": "80",
    "province_id": "11",
    "label": "Kabupaten Bojonegoro",
    "postal_code": "62119"
  },
  {
    "value": "81",
    "province_id": "31",
    "label": "Kabupaten Bolaang Mongondow (Bolmong)",
    "postal_code": "95755"
  },
  {
    "value": "82",
    "province_id": "31",
    "label": "Kabupaten Bolaang Mongondow Selatan",
    "postal_code": "95774"
  },
  {
    "value": "83",
    "province_id": "31",
    "label": "Kabupaten Bolaang Mongondow Timur",
    "postal_code": "95783"
  },
  {
    "value": "84",
    "province_id": "31",
    "label": "Kabupaten Bolaang Mongondow Utara",
    "postal_code": "95765"
  },
  {
    "value": "85",
    "province_id": "30",
    "label": "Kabupaten Bombana",
    "postal_code": "93771"
  },
  {
    "value": "86",
    "province_id": "11",
    "label": "Kabupaten Bondowoso",
    "postal_code": "68219"
  },
  {
    "value": "87",
    "province_id": "28",
    "label": "Kabupaten Bone",
    "postal_code": "92713"
  },
  {
    "value": "88",
    "province_id": "7",
    "label": "Kabupaten Bone Bolango",
    "postal_code": "96511"
  },
  {
    "value": "89",
    "province_id": "15",
    "label": "Kota Bontang",
    "postal_code": "75313"
  },
  {
    "value": "9",
    "province_id": "21",
    "label": "Kabupaten Aceh Tenggara",
    "postal_code": "24611"
  },
  {
    "value": "90",
    "province_id": "24",
    "label": "Kabupaten Boven Digoel",
    "postal_code": "99662"
  },
  {
    "value": "91",
    "province_id": "10",
    "label": "Kabupaten Boyolali",
    "postal_code": "57312"
  },
  {
    "value": "92",
    "province_id": "10",
    "label": "Kabupaten Brebes",
    "postal_code": "52212"
  },
  {
    "value": "93",
    "province_id": "32",
    "label": "Kota Bukittinggi",
    "postal_code": "26115"
  },
  {
    "value": "94",
    "province_id": "1",
    "label": "Kabupaten Buleleng",
    "postal_code": "81111"
  },
  {
    "value": "95",
    "province_id": "28",
    "label": "Kabupaten Bulukumba",
    "postal_code": "92511"
  },
  {
    "value": "96",
    "province_id": "16",
    "label": "Kabupaten Bulungan (Bulongan)",
    "postal_code": "77211"
  },
  {
    "value": "97",
    "province_id": "8",
    "label": "Kabupaten Bungo",
    "postal_code": "37216"
  },
  {
    "value": "98",
    "province_id": "29",
    "label": "Kabupaten Buol",
    "postal_code": "94564"
  },
  {
    "value": "99",
    "province_id": "19",
    "label": "Kabupaten Buru",
    "postal_code": "97371"
  }
]
